INMARSAT 4-F3           
1 33278U 08039A   26161.24925492 -.00000126  00000+0  00000+0 0  9994
2 33278   4.2871  31.6013 0002769  49.4019 169.3302  1.00273121 46474
NIMIQ 4                 
1 33373U 08044A   26161.32370769 -.00000203  00000+0  00000+0 0  9992
2 33373   0.0225 299.9079 0002006 142.8031 210.4999  1.00269795 64915
GALAXY 19 (G-19)        
1 33376U 08045A   26161.32076101 -.00000122  00000+0  00000+0 0  9999
2 33376   0.0139 277.2517 0002656 161.6400 198.2761  1.00270983 64830
ASTRA 1M                
1 33436U 08057A   26161.34372778  .00000138  00000+0  00000+0 0  9996
2 33436   0.2778  82.3499 0004686  19.7619 299.7252  1.00268946 45660
EUTELSAT HOTBIRD 13C    
1 33459U 08065A   26161.32994771 -.00000266  00000+0  00000+0 0  9994
2 33459   2.9317  79.2703 0003592   2.1357 245.7610  1.00270085 47271
EXPRESS-AM44            
1 33595U 09007A   26161.19519135 -.00000072  00000+0  00000+0 0  9999
2 33595   3.4445  78.4819 0004223 355.6939 243.6566  1.00271669 52219
NSS-9                   
1 33749U 09008A   26161.45947663  .00000089  00000+0  00000+0 0  9998
2 33749   1.2434  82.7210 0002038 345.5797 178.9956  1.00271871 63455
TELSTAR 11N             
1 34111U 09009A   26161.26115958 -.00000233  00000+0  00000+0 0  9998
2 34111   0.0193   8.9951 0002383  64.7753 241.3244  1.00274399 46178
WGS F2 (USA 204)        
1 34713U 09017A   26161.45114191  .00000085  00000+0  00000+0 0  9998
2 34713   0.0172 341.4550 0000459 262.8601 234.4288  1.00271523 45556
SES-7 (PROTOSTAR 2)     
1 34941U 09027A   26161.43264748 -.00000328  00000+0  00000+0 0  9995
2 34941   0.0452  73.3090 0000820  97.3165 352.2056  1.00272258 62566
MEASAT-3A               
1 35362U 09032A   26161.46503130 -.00000093  00000+0  00000+0 0  9992
2 35362   0.0254  13.1933 0002948  63.0728 149.9755  1.00271470  7965
GOES 14                 
1 35491U 09033A   26161.36876781 -.00000246  00000+0  00000+0 0  9990
2 35491   1.6715  83.1236 0001856   6.5937  87.5143  1.00113242  6522
FM-5                    
1 35493U 09034A   26161.32284101 -.00000183  00000+0  00000+0 0  9998
2 35493   0.0175 292.9967 0000652   1.3311 354.4362  1.00270705 46576
TERRESTAR-1             
1 35496U 09035A   26161.44836416 -.00000042  00000+0  00000+0 0  9991
2 35496   5.1785  48.7967 0002588  28.6350 231.7779  1.00270569 62063
ASIASAT 5               
1 35696U 09042A   26160.36175032 -.00000290  00000+0  00000+0 0  9996
2 35696   0.0179  62.7257 0001488 358.0585  67.6933  1.00271303 61639
JCSAT-12 (JCSAT-RA)     
1 35755U 09044A   26161.36608115 -.00000310  00000+0  00000+0 0  9991
2 35755   0.0105 348.9385 0000213 169.4450   4.1691  1.00270178 61541
OPTUS D3                
1 35756U 09044B   26161.41294845 -.00000128  00000+0  00000+0 0  9996
2 35756   0.8655 269.4969 0002948 173.7058 120.3719  1.00269697 61494
NIMIQ 5                 
1 35873U 09050A   26161.32552769 -.00000239  00000+0  00000+0 0  9998
2 35873   0.0299 277.8366 0002853 156.9788 228.3709  1.00271312 61273
AMAZONAS 2              
1 35942U 09054A   26161.38557750 -.00000242  00000+0  00000+0 0  9994
2 35942   1.7971  83.1365 0003327 352.6190 249.8195  1.00271202 61119
COMSATBW-1              
1 35943U 09054B   26161.13851916  .00000042  00000+0  00000+0 0  9996
2 35943   0.0632  76.8238 0002900   7.8124 286.7402  1.00271937 61235
NSS-12                  
1 36032U 09058A   26161.45114191  .00000089  00000+0  00000+0 0  9993
2 36032   0.0724  66.2308 0004705 342.7989  69.1874  1.00271153 60856
THOR 6                  
1 36033U 09058B   26161.33974110  .00000008  00000+0  00000+0 0  9997
2 36033   0.0159 253.2769 0002235 217.9664 268.9187  1.00271520 60930
INTELSAT 14 (IS-14)     
1 36097U 09064A   26161.33098772 -.00000256  00000+0  00000+0 0  9991
2 36097   0.0171 347.6386 0002728 109.2328 235.9805  1.00269898 60536
EUTELSAT 36B            
1 36101U 09065A   26161.20723808  .00000130  00000+0  00000+0 0  9999
2 36101   0.4726  81.0215 0005960 357.0019 305.6378  1.00271263 60633
INTELSAT 15 (IS-15)     
1 36106U 09067A   26161.42805411 -.00000167  00000+0  00000+0 0  9992
2 36106   0.0167 354.7930 0002188  89.0685  54.1774  1.00270745 41164
WGS F3 (USA 211)        
1 36108U 09068A   26161.47683639  .00000081  00000+0  00000+0 0  9990
2 36108   0.3324  85.8119 0000281   1.2907 213.4205  1.00271127 46529
DIRECTV 12              
1 36131U 09075A   26161.24830156 -.00000085  00000+0  00000+0 0  9992
2 36131   0.0475 139.6915 0000109 293.2739 172.3118  1.00268056 46484
BEIDOU-2 G1             
1 36287U 10001A   26161.51035569 -.00000264  00000+0  00000+0 0  9999
2 36287   4.2767  60.4272 0002532 304.9332 217.7105  1.00273494 60101
SDO                     
1 36395U 10005A   26160.45717389 -.00000063  00000+0  00000+0 0  9999
2 36395  34.6348  86.4608 0001571  53.7612 180.1782  1.00270666 59982
INTELSAT 16 (IS-16)     
1 36397U 10006A   26161.32483434 -.00000227  00000+0  00000+0 0  9992
2 36397   0.0079 326.9433 0002115 132.6639 199.8214  1.00269318 59586
EWS-G2 (GOES 15)        
1 36411U 10008A   26161.42380743  .00000036  00000+0  00000+0 0  9998
2 36411   1.2581  82.9688 0005435  39.6409 352.3756  1.00275696 59576
ECHOSTAR 14             
1 36499U 10010A   26161.47128153  .00000018  00000+0  00000+0 0  9997
2 36499   0.0516  90.0697 0002387   7.5716 211.9579  1.00272120 46483
